;START_OF_HEADER
;HEADER_VERSION:0.1
;FLAVOR:Griffin
;GENERATOR.NAME:Cura_SteamEngine
;GENERATOR.VERSION:5.10.0
;GENERATOR.BUILD_DATE:2025-03-21
;TARGET_MACHINE.NAME:Ultimaker S5
;EXTRUDER_TRAIN.0.INITIAL_TEMPERATURE:200
;EXTRUDER_TRAIN.0.MATERIAL.VOLUME_USED:1620
;EXTRUDER_TRAIN.0.MATERIAL.GUID:44a029e6-e31b-4c9e-a12f-9282e29a92ff
;EXTRUDER_TRAIN.0.NOZZLE.DIAMETER:0.4
;EXTRUDER_TRAIN.0.NOZZLE.NAME:AA 0.4
;BUILD_PLATE.INITIAL_TEMPERATURE:60
;BUILD_VOLUME.TEMPERATURE:28
;PRINT.TIME:133
;PRINT.GROUPS:1
;PRINT.SIZE.MIN.X:132.9
;PRINT.SIZE.MIN.Y:109.944
;PRINT.SIZE.MIN.Z:0.5
;PRINT.SIZE.MAX.X:330
;PRINT.SIZE.MAX.Y:237
;PRINT.SIZE.MAX.Z:20.001
;SLICE_UUID:358bcebd-312b-41c4-bb68-6607fd1bf8ce
;END_OF_HEADER
;Generated with Cura_SteamEngine 5.10.0
T0

M82 ;absolute extrusion mode
G92 E0
M190 S60
M104 S200
M109 S200
G280 S1
G0 Z20.001
G1 F2700 E-6.5
;LAYER_COUNT:3
G0 F9000 X330 Y237
;LAYER:0
M106 S255
M204 S1500
M205 X52.5 Y52.5
G1 F600 Z2.5
G0 F9000 X196.41 Y126.105 Z2.5
;TYPE:SKIRT
G1 F600 Z0.5
G1 F2700 E0
G1 F1800 X194.072 Y128.891 E0.11402
G1 X190.787 Y130.056 E0.2233
G1 X139.425 Y130.056 E1.83354
G1 X137.689 Y129.644 E1.88948
G1 X135.834 Y128.618 E1.95594
G1 X134.696 Y127.58 E2.00423
G1 X133.562 Y125.79 E2.07066
G1 X132.9 Y123.526 E2.14461
G1 X132.9 Y116.469 E2.36585
G1 X133.312 Y114.733 E2.42179
G1 X134.338 Y112.878 E2.48825
G1 X135.376 Y111.74 E2.53654
G1 X137.166 Y110.606 E2.60297
G1 X139.43 Y109.944 E2.67692
G1 X191.089 Y109.944 E4.29648
G1 X193.894 Y111.147 E4.39217
G1 X195.75 Y112.841 E4.47095
G1 X197.1 Y115.929 E4.5766
G1 X197.1 Y123.542 E4.81528
G1 X196.41 Y126.105 E4.89849
G0 F9000 X196.047 Y125.914
G1 F1800 X193.835 Y128.552 E5.00642
G1 X190.718 Y129.656 E5.11009
G1 X139.471 Y129.656 E6.71673
G1 X137.836 Y129.268 E6.76942
G1 X136.068 Y128.29 E6.83276
G1 X135.006 Y127.321 E6.87783
G1 X133.93 Y125.623 E6.94085
G1 X133.3 Y123.469 E7.01121
G1 X133.3 Y116.515 E7.22923
G1 X133.688 Y114.88 E7.28191
G1 X134.666 Y113.112 E7.34525
G1 X135.635 Y112.05 E7.39032
G1 X137.333 Y110.974 E7.45335
G1 X139.487 Y110.344 E7.5237
G1 X191.006 Y110.344 E9.13887
G1 X193.676 Y111.489 E9.22995
G1 X195.417 Y113.078 E9.30385
G1 X196.7 Y116.014 E9.4043
G1 X196.7 Y123.49 E9.63868
G1 X196.047 Y125.914 E9.71738
G0 F9000 X195.684 Y125.723
G1 F1800 X193.598 Y128.213 E9.81922
G1 X190.65 Y129.256 E9.91726
G1 X139.517 Y129.256 E11.52033
G1 X137.983 Y128.892 E11.56975
G1 X136.305 Y127.964 E11.62987
G1 X135.314 Y127.06 E11.67192
G1 X134.298 Y125.456 E11.73145
G1 X133.7 Y123.412 E11.79822
G1 X133.7 Y116.561 E12.013
G1 X134.064 Y115.027 E12.06243
G1 X134.992 Y113.349 E12.12255
G1 X135.896 Y112.358 E12.1646
G1 X137.5 Y111.342 E12.22412
G1 X139.544 Y110.744 E12.29089
G1 X190.923 Y110.744 E13.90167
G1 X193.458 Y111.831 E13.98814
G1 X195.084 Y113.315 E14.05716
G1 X196.3 Y116.098 E14.15237
G1 X196.3 Y123.438 E14.38249
G1 X195.684 Y125.723 E14.45669
G0 F9000 X195.321 Y125.532
G1 F1800 X193.361 Y127.874 E14.55243
G1 X190.582 Y128.856 E14.64483
G1 X139.563 Y128.856 E16.24433
G1 X138.13 Y128.516 E16.2905
G1 X136.542 Y127.638 E16.34739
G1 X135.622 Y126.799 E16.38642
G1 X134.666 Y125.289 E16.44245
G1 X134.1 Y123.355 E16.50563
G1 X134.1 Y116.607 E16.71718
G1 X134.44 Y115.174 E16.76336
G1 X135.318 Y113.586 E16.82025
G1 X136.157 Y112.666 E16.85928
G1 X137.667 Y111.71 E16.91531
G1 X139.601 Y111.144 E16.97849
G1 X190.84 Y111.144 E18.58488
G1 X193.24 Y112.173 E18.66674
G1 X194.751 Y113.552 E18.73088
G1 X195.9 Y116.182 E18.82086
G1 X195.9 Y123.386 E19.04671
G1 X195.321 Y125.532 E19.11639
G0 F9000 X194.958 Y125.341
G1 F1800 X193.124 Y127.535 E19.20604
G1 X190.514 Y128.456 E19.29281
G1 X139.609 Y128.456 E20.88873
G1 X138.277 Y128.14 E20.93165
G1 X136.776 Y127.31 E20.98542
G1 X135.931 Y126.54 E21.02127
G1 X135.034 Y125.122 E21.07387
G1 X134.5 Y123.298 E21.13345
G1 X134.5 Y116.653 E21.34178
G1 X134.816 Y115.321 E21.3847
G1 X135.646 Y113.82 E21.43847
G1 X136.416 Y112.975 E21.47431
G1 X137.834 Y112.078 E21.52692
G1 X139.658 Y111.544 E21.5865
G1 X190.757 Y111.544 E23.1885
G1 X193.022 Y112.515 E23.26576
G1 X194.418 Y113.789 E23.32501
G1 X195.5 Y116.266 E23.40975
G1 X195.5 Y123.334 E23.63134
G1 X194.958 Y125.341 E23.69652
G0 F9000 X194.595 Y125.152
G1 F1800 X192.887 Y127.196 E23.78003
G1 X190.446 Y128.056 E23.86117
G1 X139.655 Y128.056 E25.45351
G1 X138.424 Y127.764 E25.49317
G1 X137.01 Y126.982 E25.54383
G1 X136.24 Y126.281 E25.57648
G1 X135.402 Y124.955 E25.62565
G1 X134.9 Y123.241 E25.68165
G1 X134.9 Y116.699 E25.88675
G1 X135.192 Y115.468 E25.92641
G1 X135.974 Y114.054 E25.97707
G1 X136.675 Y113.284 E26.00971
G1 X138.001 Y112.446 E26.05889
G1 X139.715 Y111.944 E26.11488
G1 X190.674 Y111.944 E27.71249
G1 X192.804 Y112.857 E27.78515
G1 X194.085 Y114.026 E27.83952
G1 X195.1 Y116.35 E27.91902
G1 X195.1 Y123.282 E28.13635
G1 X194.595 Y125.152 E28.19707
G0 F9000 X194.232 Y124.963
G1 F1800 X192.652 Y126.856 E28.27438
G1 X190.378 Y127.656 E28.34995
G1 X139.701 Y127.656 E29.93872
G1 X138.571 Y127.388 E29.97513
G1 X137.244 Y126.654 E30.02268
G1 X136.549 Y126.022 E30.05213
G1 X135.77 Y124.789 E30.09785
G1 X135.3 Y123.184 E30.15028
G1 X135.3 Y116.745 E30.35215
G1 X135.568 Y115.615 E30.38856
G1 X136.302 Y114.288 E30.4361
G1 X136.934 Y113.593 E30.46555
G1 X138.167 Y112.814 E30.51128
G1 X139.772 Y112.344 E30.56371
G1 X190.591 Y112.344 E32.15693
G1 X192.586 Y113.199 E32.22498
G1 X193.752 Y114.263 E32.27447
G1 X194.7 Y116.434 E32.34873
G1 X194.7 Y123.23 E32.5618
G1 X194.232 Y124.963 E32.61807
G0 F9000 X193.869 Y124.774
G1 F1800 X192.417 Y126.516 E32.68917
G1 X190.31 Y127.256 E32.75918
G1 X139.747 Y127.256 E34.34438
G1 X138.718 Y127.012 E34.37753
G1 X137.478 Y126.326 E34.42196
G1 X136.858 Y125.763 E34.44822
G1 X136.138 Y124.623 E34.49049
G1 X135.7 Y123.127 E34.53936
G1 X135.7 Y116.791 E34.738
G1 X135.944 Y115.762 E34.77115
G1 X136.63 Y114.522 E34.81558
G1 X137.193 Y113.902 E34.84184
G1 X138.333 Y113.182 E34.88411
G1 X139.829 Y112.744 E34.93298
G1 X190.508 Y112.744 E36.52181
G1 X192.368 Y113.541 E36.58525
G1 X193.419 Y114.5 E36.62986
G1 X194.3 Y116.518 E36.69889
G1 X194.3 Y123.178 E36.90769
G1 X193.869 Y124.774 E36.95951
G0 F9000 X193.506 Y124.584
G1 F1800 X192.181 Y126.177 E37.02447
G1 X190.241 Y126.856 E37.08891
G1 X139.793 Y126.856 E38.6705
G1 X138.865 Y126.636 E38.7004
G1 X137.712 Y125.998 E38.74172
G1 X137.167 Y125.504 E38.76478
G1 X136.506 Y124.457 E38.8036
G1 X136.1 Y123.07 E38.84891
G1 X136.1 Y116.837 E39.04432
G1 X136.32 Y115.909 E39.07422
G1 X136.958 Y114.756 E39.11553
G1 X137.452 Y114.211 E39.13859
G1 X138.499 Y113.55 E39.17741
G1 X139.886 Y113.144 E39.22272
G1 X190.426 Y113.144 E40.80719
G1 X192.149 Y113.882 E40.86596
G1 X193.086 Y114.737 E40.90572
G1 X193.9 Y116.602 E40.96952
G1 X193.9 Y123.126 E41.17405
G1 X193.506 Y124.584 E41.2214
G0 F9000 X193.143 Y124.394
G1 F1800 X191.945 Y125.837 E41.2802
G1 X190.172 Y126.456 E41.33908
G1 X139.839 Y126.456 E42.91706
G1 X139.012 Y126.26 E42.94371
G1 X137.906 Y125.648 E42.98334
G1 X137.505 Y125.29 E43.00019
G1 X136.874 Y124.291 E43.03723
G1 X136.5 Y123.013 E43.07898
G1 X136.5 Y116.883 E43.27116
G1 X136.696 Y116.056 E43.29781
G1 X137.308 Y114.95 E43.33743
G1 X137.666 Y114.549 E43.35429
G1 X138.665 Y113.918 E43.39133
G1 X139.943 Y113.544 E43.43308
G1 X190.344 Y113.544 E45.0132
G1 X191.93 Y114.223 E45.06728
G1 X192.753 Y114.974 E45.10221
G1 X193.5 Y116.686 E45.16077
G1 X193.5 Y123.074 E45.36104
G1 X193.143 Y124.394 E45.40391
G0 F9000 X192.78 Y124.205
G1 F1800 X191.709 Y125.498 E45.45655
G1 X190.104 Y126.056 E45.50982
G1 X139.885 Y126.056 E47.08424
G1 X139.159 Y125.884 E47.10763
G1 X138.1 Y125.298 E47.14557
G1 X137.843 Y125.076 E47.15622
G1 X137.242 Y124.125 E47.19149
G1 X136.9 Y122.956 E47.22967
G1 X136.9 Y116.929 E47.41862
G1 X137.072 Y116.203 E47.44202
G1 X137.658 Y115.144 E47.47996
G1 X137.88 Y114.887 E47.49061
G1 X138.831 Y114.286 E47.52588
G1 X140 Y113.944 E47.56406
G1 X190.262 Y113.944 E49.13982
G1 X191.711 Y114.564 E49.18923
G1 X192.42 Y115.211 E49.21933
G1 X193.1 Y116.77 E49.27265
G1 X193.1 Y123.022 E49.46865
G1 X192.78 Y124.205 E49.50708
G0 F9000 X192.417 Y124.017
G1 F1800 X191.472 Y125.159 E49.55355
G1 X190.036 Y125.656 E49.60119
G1 X139.885 Y125.656 E51.17347
G1 X139.353 Y125.534 E51.19058
G1 X138.294 Y124.948 E51.22852
G1 X138.15 Y124.812 E51.23473
G1 X137.61 Y123.959 E51.26638
G1 X137.3 Y122.899 E51.30101
G1 X137.3 Y116.929 E51.48817
G1 X137.422 Y116.397 E51.50528
G1 X138.008 Y115.338 E51.54323
G1 X138.144 Y115.194 E51.54944
G1 X138.997 Y114.654 E51.58109
G1 X140.057 Y114.344 E51.61571
G1 X190.18 Y114.344 E53.18712
G1 X191.492 Y114.905 E53.23185
G1 X192.087 Y115.448 E53.2571
G1 X192.7 Y116.854 E53.30519
G1 X192.7 Y122.97 E53.49693
G1 X192.417 Y124.017 E53.53094
G0 F9000 X192.054 Y123.829
G1 F1800 X191.235 Y124.82 E53.57124
G1 X189.97 Y125.256 E53.61319
G1 X139.885 Y125.256 E55.1834
G1 X139.547 Y125.184 E55.19424
G1 X138.488 Y124.598 E55.23218
G1 X137.978 Y123.792 E55.26208
G1 X137.7 Y122.842 E55.29312
G1 X137.7 Y116.929 E55.47849
G1 X137.772 Y116.591 E55.48933
G1 X138.358 Y115.532 E55.52727
G1 X139.164 Y115.022 E55.55718
G1 X140.114 Y114.744 E55.58821
G1 X190.098 Y114.744 E57.15525
G1 X191.335 Y115.273 E57.19743
G1 X191.72 Y115.608 E57.21343
G1 X192.3 Y116.938 E57.25892
G1 X192.3 Y122.918 E57.4464
G1 X192.054 Y123.829 E57.47598
G0 F9000 X191.691 Y123.641
G1 F1800 X191 Y124.48 E57.51006
G1 X189.904 Y124.856 E57.54638
G1 X139.885 Y124.856 E59.11453
G1 X139.691 Y124.806 E59.12081
G1 X138.771 Y124.297 E59.15377
G1 X138.347 Y123.626 E59.17865
G1 X138.1 Y122.784 E59.20616
G1 X138.1 Y116.929 E59.38972
G1 X138.15 Y116.735 E59.396
G1 X138.659 Y115.815 E59.42897
G1 X139.33 Y115.391 E59.45385
G1 X140.172 Y115.144 E59.48136
G1 X190.016 Y115.144 E61.04402
G1 X191.178 Y115.641 E61.08364
G1 X191.353 Y115.768 E61.09042
G1 X191.9 Y117.022 E61.13331
G1 X191.9 Y122.866 E61.31652
G1 X191.691 Y123.641 E61.34169
G0 F9000 X191.327 Y123.454
G1 F1800 X190.764 Y124.14 E61.36951
G1 X189.836 Y124.456 E61.40025
G1 X139.885 Y124.456 E62.96626
G1 X139.054 Y123.996 E62.99603
G1 X138.731 Y123.513 E63.01425
G1 X138.5 Y122.726 E63.03996
G1 X138.5 Y116.929 E63.22171
G1 X138.96 Y116.098 E63.25148
G1 X139.443 Y115.775 E63.2697
G1 X140.23 Y115.544 E63.29541
G1 X189.934 Y115.544 E64.85368
G1 X191.021 Y116.009 E64.89075
G1 X191.5 Y117.106 E64.92827
G1 X191.5 Y122.866 E65.10886
G1 X191.327 Y123.454 E65.12807
G0 F9000 X191.017 Y123.201
G1 F1800 X190.528 Y123.801 E65.15234
G1 X189.77 Y124.056 E65.17741
G1 X139.988 Y124.056 E66.73812
G1 X139.331 Y123.693 E66.76165
G1 X139.112 Y123.392 E66.77332
G1 X138.9 Y122.726 E66.79524
G1 X138.9 Y117.032 E66.97375
G1 X139.263 Y116.375 E66.99728
G1 X139.564 Y116.156 E67.00895
G1 X140.23 Y115.944 E67.03086
G1 X189.852 Y115.944 E68.58656
G1 X190.717 Y116.314 E68.61605
G1 X191.1 Y117.19 E68.64603
G1 X191.1 Y122.866 E68.82398
G1 X191.017 Y123.201 E68.8348
G0 F9000 X190.3 Y122.866
G1 F1800 X190.147 Y123.098 E68.84351
G1 X189.77 Y123.256 E68.85632
G1 X140.09 Y123.256 E70.41384
G1 X139.858 Y123.103 E70.42255
G1 X139.7 Y122.726 E70.43537
G1 X139.7 Y117.134 E70.61068
G1 X139.853 Y116.902 E70.61939
G1 X140.23 Y116.744 E70.63221
G1 X189.77 Y116.744 E72.18533
G1 X190.142 Y116.897 E72.19794
G1 X190.3 Y117.274 E72.21076
G1 X190.3 Y122.866 E72.38607
G0 F9000 X190.634 Y123.086
G1 F1800 X190.353 Y123.441 E72.40027
G1 X189.77 Y123.656 E72.41975
G1 X140.09 Y123.656 E73.97726
G1 X139.638 Y123.437 E73.99301
G1 X139.489 Y123.258 E74.00031
G1 X139.3 Y122.726 E74.01801
G1 X139.3 Y117.134 E74.19333
G1 X139.519 Y116.682 E74.20907
G1 X139.698 Y116.533 E74.21637
G1 X140.23 Y116.344 E74.23407
G1 X189.77 Y116.344 E75.7872
G1 X190.439 Y116.63 E75.81001
G1 X190.7 Y117.274 E75.83179
G1 X190.7 Y122.866 E76.00711
G1 X190.634 Y123.086 E76.01431
;MESH:50l_6w_4h.stl
G0 F9000 X189.568 Y122.524
M205 X30 Y30
;TYPE:WALL-OUTER
G1 F1800 X189.568 Y117.472 E76.18853
G1 X140.428 Y117.472 E77.88317
G1 X140.428 Y122.524 E78.0574
G1 X189.568 Y122.524 E79.75204
G0 F9000 X189.568 Y121.724
G0 X189.168 Y122.124
;TYPE:WALL-INNER
G1 F1800 X189.168 Y117.872 E79.87868
G1 X140.828 Y117.872 E81.31841
G1 X140.828 Y122.124 E81.44505
G1 X189.168 Y122.124 E82.88478
G0 F9000 X188.768 Y121.724
G1 F1800 X188.768 Y118.272 E82.98759
G1 X141.228 Y118.272 E84.40349
G1 X141.228 Y121.724 E84.5063
G1 X188.768 Y121.724 E85.9222
G0 F9000 X188.448 Y121.404
;TYPE:SKIN
G1 F1800 X188.448 Y118.592 E86.00177
G1 X141.548 Y118.592 E87.32877
G1 X141.548 Y121.404 E87.40833
G1 X188.448 Y121.404 E88.73533
G0 F9000 X188.248 Y119.234
G1 F1800 X187.806 Y118.793 E88.75299
G0 F9000 X187.24 Y118.793
G1 F1800 X188.248 Y119.8 E88.79331
G0 F9000 X188.248 Y120.366
G1 F1800 X186.675 Y118.793 E88.85625
G0 F9000 X186.109 Y118.793
G1 F1800 X188.248 Y120.932 E88.94184
G0 F9000 X187.955 Y121.204
G1 F1800 X185.543 Y118.793 E89.03833
G0 F9000 X184.978 Y118.793
G1 F1800 X187.389 Y121.204 E89.13481
G0 F9000 X186.823 Y121.204
G1 F1800 X184.412 Y118.793 E89.23128
G0 F9000 X183.846 Y118.793
G1 F1800 X186.258 Y121.204 E89.32778
G0 F9000 X185.692 Y121.204
G1 F1800 X183.281 Y118.793 E89.42425
G0 F9000 X182.715 Y118.793
G1 F1800 X185.126 Y121.204 E89.52072
G0 F9000 X184.561 Y121.204
G1 F1800 X182.149 Y118.793 E89.61722
G0 F9000 X181.584 Y118.793
G1 F1800 X183.995 Y121.204 E89.71369
G0 F9000 X183.429 Y121.204
G1 F1800 X181.018 Y118.793 E89.81017
G0 F9000 X180.452 Y118.793
G1 F1800 X182.863 Y121.204 E89.90664
G0 F9000 X182.298 Y121.204
G1 F1800 X179.887 Y118.793 E90.00311
G0 F9000 X179.321 Y118.793
G1 F1800 X181.732 Y121.204 E90.09959
G0 F9000 X181.166 Y121.204
G1 F1800 X178.755 Y118.793 E90.19606
G0 F9000 X178.189 Y118.793
G1 F1800 X180.601 Y121.204 E90.29256
G0 F9000 X180.035 Y121.204
G1 F1800 X177.624 Y118.793 E90.38903
G0 F9000 X177.058 Y118.793
G1 F1800 X179.469 Y121.204 E90.4855
G0 F9000 X178.904 Y121.204
G1 F1800 X176.492 Y118.793 E90.582
G0 F9000 X175.927 Y118.793
G1 F1800 X178.338 Y121.204 E90.67847
G0 F9000 X177.772 Y121.204
G1 F1800 X175.361 Y118.793 E90.77494
G0 F9000 X174.795 Y118.793
G1 F1800 X177.207 Y121.204 E90.87144
G0 F9000 X176.641 Y121.204
G1 F1800 X174.23 Y118.793 E90.96791
G0 F9000 X173.664 Y118.793
G1 F1800 X176.075 Y121.204 E91.06439
G0 F9000 X175.51 Y121.204
G1 F1800 X173.098 Y118.793 E91.16088
G0 F9000 X172.533 Y118.793
G1 F1800 X174.944 Y121.204 E91.25735
G0 F9000 X174.378 Y121.204
G1 F1800 X171.967 Y118.793 E91.35383
G0 F9000 X171.401 Y118.793
G1 F1800 X173.813 Y121.204 E91.45032
G0 F9000 X173.247 Y121.204
G1 F1800 X170.836 Y118.793 E91.5468
G0 F9000 X170.27 Y118.793
G1 F1800 X172.681 Y121.204 E91.64327
G0 F9000 X172.115 Y121.204
G1 F1800 X169.704 Y118.793 E91.73974
G0 F9000 X169.139 Y118.793
G1 F1800 X171.55 Y121.204 E91.83622
G0 F9000 X170.984 Y121.204
G1 F1800 X168.573 Y118.793 E91.93269
G0 F9000 X168.007 Y118.793
G1 F1800 X170.418 Y121.204 E92.02917
G0 F9000 X169.853 Y121.204
G1 F1800 X167.441 Y118.793 E92.12566
G0 F9000 X166.876 Y118.793
G1 F1800 X169.287 Y121.204 E92.22213
G0 F9000 X168.721 Y121.204
G1 F1800 X166.31 Y118.793 E92.31861
G0 F9000 X165.744 Y118.793
G1 F1800 X168.156 Y121.204 E92.4151
G0 F9000 X167.59 Y121.204
G1 F1800 X165.179 Y118.793 E92.51158
G0 F9000 X164.613 Y118.793
G1 F1800 X167.024 Y121.204 E92.60805
G0 F9000 X166.459 Y121.204
G1 F1800 X164.047 Y118.793 E92.70454
G0 F9000 X163.482 Y118.793
G1 F1800 X165.893 Y121.204 E92.80102
G0 F9000 X165.327 Y121.204
G1 F1800 X162.916 Y118.793 E92.89749
G0 F9000 X162.35 Y118.793
G1 F1800 X164.762 Y121.204 E92.99398
G0 F9000 X164.196 Y121.204
G1 F1800 X161.785 Y118.793 E93.09046
G0 F9000 X161.219 Y118.793
G1 F1800 X163.63 Y121.204 E93.18693
G0 F9000 X163.064 Y121.204
G1 F1800 X160.653 Y118.793 E93.28341
G0 F9000 X160.088 Y118.793
G1 F1800 X162.499 Y121.204 E93.37988
G0 F9000 X161.933 Y121.204
G1 F1800 X159.522 Y118.793 E93.47635
G0 F9000 X158.956 Y118.793
G1 F1800 X161.367 Y121.204 E93.57283
G0 F9000 X160.802 Y121.204
G1 F1800 X158.391 Y118.793 E93.6693
G0 F9000 X157.825 Y118.793
G1 F1800 X160.236 Y121.204 E93.76578
G0 F9000 X159.67 Y121.204
G1 F1800 X157.259 Y118.793 E93.86225
G0 F9000 X156.693 Y118.793
G1 F1800 X159.105 Y121.204 E93.95874
G0 F9000 X158.539 Y121.204
G1 F1800 X156.128 Y118.793 E94.05522
G0 F9000 X155.562 Y118.793
G1 F1800 X157.973 Y121.204 E94.15169
G0 F9000 X157.408 Y121.204
G1 F1800 X154.996 Y118.793 E94.24819
G0 F9000 X154.431 Y118.793
G1 F1800 X156.842 Y121.204 E94.34466
G0 F9000 X156.276 Y121.204
G1 F1800 X153.865 Y118.793 E94.44113
G0 F9000 X153.299 Y118.793
G1 F1800 X155.711 Y121.204 E94.53763
G0 F9000 X155.145 Y121.204
G1 F1800 X152.734 Y118.793 E94.6341
G0 F9000 X152.168 Y118.793
G1 F1800 X154.579 Y121.204 E94.73057
G0 F9000 X154.014 Y121.204
G1 F1800 X151.602 Y118.793 E94.82707
G0 F9000 X151.037 Y118.793
G1 F1800 X153.448 Y121.204 E94.92354
G0 F9000 X152.882 Y121.204
G1 F1800 X150.471 Y118.793 E95.02002
G0 F9000 X149.905 Y118.793
G1 F1800 X152.316 Y121.204 E95.11649
G0 F9000 X151.751 Y121.204
G1 F1800 X149.34 Y118.793 E95.21296
G0 F9000 X148.774 Y118.793
G1 F1800 X151.185 Y121.204 E95.30944
G0 F9000 X150.619 Y121.204
G1 F1800 X148.208 Y118.793 E95.40591
G0 F9000 X147.642 Y118.793
G1 F1800 X150.054 Y121.204 E95.50241
G0 F9000 X149.488 Y121.204
G1 F1800 X147.077 Y118.793 E95.59888
G0 F9000 X146.511 Y118.793
G1 F1800 X148.922 Y121.204 E95.69535
G0 F9000 X148.357 Y121.204
G1 F1800 X145.945 Y118.793 E95.79185
G0 F9000 X145.38 Y118.793
G1 F1800 X147.791 Y121.204 E95.88832
G0 F9000 X147.225 Y121.204
G1 F1800 X144.814 Y118.793 E95.9848
G0 F9000 X144.248 Y118.793
G1 F1800 X146.66 Y121.204 E96.08129
G0 F9000 X146.094 Y121.204
G1 F1800 X143.683 Y118.793 E96.17776
G0 F9000 X143.117 Y118.793
G1 F1800 X145.528 Y121.204 E96.27424
G0 F9000 X144.963 Y121.204
G1 F1800 X142.551 Y118.793 E96.37073
G0 F9000 X141.986 Y118.793
G1 F1800 X144.397 Y121.204 E96.4672
G0 F9000 X143.831 Y121.204
G1 F1800 X141.748 Y119.121 E96.55055
G0 F9000 X141.748 Y119.686
G1 F1800 X143.265 Y121.204 E96.61128
G0 F9000 X142.7 Y121.204
G1 F1800 X141.748 Y120.252 E96.64937
G0 F9000 X141.748 Y120.818
G1 F1800 X142.134 Y121.204 E96.66481
M204 S3500
G1 F2700 E90.16481
;MESH:NONMESH
G0 F600 X142.134 Y121.204 Z2.5
G0 F9000 X142.134 Y125.766
G0 X187.429 Y125.766
G0 X187.429 Y121.444
;TIME_ELAPSED:114.635563
;LAYER:1
;TYPE:FILL
;MESH:50l_6w_4h.stl
G1 F2700 E96.66481
G1 F6300 X188.487 Y121.16 E96.80219
G1 X188.488 Y121.444 E96.8378
G1 X186.975 Y121.445 E97.02754
G1 X187.75 Y118.552 E97.40312
G1 X188.488 Y118.552 E97.49567
G0 F9000 X175.327 Y118.551
G1 F6300 X174.552 Y121.444 E97.87126
G1 X176.625 Y121.444 E98.13122
G1 X173.733 Y118.552 E98.64411
G1 X177.127 Y118.552 E99.06973
G1 X179.381 Y120.806 E99.46947
G1 X179.553 Y121.445 E99.55246
G1 X179.911 Y121.444 E99.59735
G1 X179.716 Y120.719 E99.6915
G1 X180.296 Y118.552 E99.97281
G1 X180.522 Y118.552 E100.00116
G1 X183.414 Y121.444 E100.51404
G1 X182.006 Y121.445 E100.69061
G1 X182.781 Y118.552 E101.0662
G1 X183.916 Y118.552 E101.20853
G1 X186.808 Y121.444 E101.72142
G1 X184.49 Y121.445 E102.01211
G1 X185.265 Y118.552 E102.38769
G1 X187.31 Y118.552 E102.64414
G1 X187.412 Y118.654 E102.66223
G1 X188.488 Y118.942 E102.80192
G1 X188.488 Y119.299 E102.84669
G1 X187.322 Y118.987 E102.99805
G1 X178.156 Y121.444 E104.18808
G1 X177.036 Y121.444 E104.32853
G1 X177.811 Y118.552 E104.704
G1 X179.676 Y118.552 E104.93787
G1 X168.883 Y121.444 E106.3391
G1 X167.098 Y121.444 E106.56295
G1 X167.873 Y118.551 E106.93853
G1 X170.339 Y118.552 E107.24778
G1 X172.069 Y120.282 E107.55459
G1 X172.38 Y121.444 E107.70544
G1 X172.738 Y121.444 E107.75033
G1 X172.402 Y120.192 E107.91289
G1 X172.842 Y118.551 E108.12595
G1 X170.357 Y118.551 E108.43758
G1 X169.582 Y121.444 E108.81316
G1 X169.511 Y121.444 E108.82207
G1 X166.945 Y118.552 E109.30691
G1 X165.388 Y118.551 E109.50217
G1 X164.613 Y121.445 E109.87787
G1 X166.443 Y121.444 E110.10736
G1 X163.551 Y118.552 E110.62025
G1 X162.904 Y118.551 E110.70139
G1 X162.412 Y120.384 E110.93939
G1 X162.696 Y121.444 E111.077
G1 X162.339 Y121.445 E111.12177
G1 X162.079 Y120.474 E111.24783
G1 X160.157 Y118.552 E111.58869
G1 X157.934 Y118.551 E111.86746
G1 X157.159 Y121.445 E112.24317
G1 X159.61 Y121.444 E112.55054
G1 X170.404 Y118.552 E113.95189
G1 F2700 E107.45189
G0 F9000 X145.511 Y118.552
M205 X52.5 Y52.5
G1 F2700 E113.95189
G1 F6300 X144.736 Y121.444 E114.32735
G1 X146.078 Y121.444 E114.49564
G1 X143.186 Y118.552 E115.00853
G1 X146.58 Y118.552 E115.43415
G1 X149.472 Y121.444 E115.94704
G1 X147.22 Y121.445 E116.22945
G1 X147.995 Y118.552 E116.60503
G1 X149.975 Y118.552 E116.85333
G1 X152.089 Y120.666 E117.22825
G1 X152.298 Y121.445 E117.32939
G1 X152.655 Y121.444 E117.37416
G1 X152.422 Y120.577 E117.48674
G1 X152.965 Y118.551 E117.74978
G1 X153.369 Y118.552 E117.80044
G1 X156.261 Y121.444 E118.31333
G1 X154.674 Y121.445 E118.51235
G1 X155.45 Y118.551 E118.88809
G1 X156.763 Y118.552 E119.05274
G1 X159.655 Y121.444 E119.56563
G1 X159.823 Y121.43 E119.58677
G1 X160.425 Y118.523 E119.95905
G1 X150.336 Y121.444 E121.27621
G1 X149.705 Y121.445 E121.35534
G1 X150.48 Y118.552 E121.73093
G1 X151.859 Y118.552 E121.90386
G1 X142.345 Y121.101 E123.13903
G1 X141.508 Y120.775 E123.25167
G1 X141.508 Y121.12 E123.29494
G1 X142.227 Y121.4 E123.3917
G1 X142.097 Y120.857 E123.46172
G1 X142.255 Y121.444 E123.53795
G1 X142.613 Y121.444 E123.58284
G1 X142.432 Y120.77 E123.67036
G1 X143.026 Y118.551 E123.95843
G1 X141.508 Y118.552 E124.14879
G1 X141.509 Y118.84 E124.18491
G1 X142.587 Y118.551 E124.32487
M204 S1500
G1 F2700 E117.82487
G0 F9000 X189.37 Y122.326
G0 X189.648 Y122.604
M205 X30 Y30
;TYPE:WALL-OUTER
G1 F2700 E124.32487
G1 F6300 X189.648 Y117.392 E124.97847
G1 X140.348 Y117.392 E131.16087
G1 X140.348 Y122.604 E131.81448
G1 X189.648 Y122.604 E137.99688
M204 S3500
G0 F9000 X189.648 Y121.804
G0 X189.248 Y122.204
;TYPE:WALL-INNER
G1 F6300 X189.248 Y117.792 E138.55016
G1 X140.748 Y117.792 E144.63224
G1 X140.748 Y122.204 E145.18552
G1 X189.248 Y122.204 E151.2676
G0 F9000 X188.848 Y121.804
M205 X52.5 Y52.5
G1 F6300 X188.848 Y118.192 E151.72056
G1 X141.148 Y118.192 E157.70232
G1 X141.148 Y121.804 E158.15527
G1 X188.848 Y121.804 E164.13703
M204 S1500
G0 F9000 X188.64 Y121.596
;MESH:NONMESH
G0 F600 X188.64 Y121.596 Z4.5
G0 F9000 X189.37 Y122.326
G0 X189.648 Y122.604
;TIME_ELAPSED:123.036526
;LAYER:2
M205 X30 Y30
;TYPE:WALL-OUTER
;MESH:50l_6w_4h.stl
G1 F6300 X189.648 Y117.392 E164.79064
G1 X140.348 Y117.392 E170.97304
G1 X140.348 Y122.604 E171.62664
G1 X189.648 Y122.604 E177.80905
M204 S3500
G0 F9000 X189.648 Y121.804
G0 X189.248 Y122.204
;TYPE:WALL-INNER
G1 F6300 X189.248 Y117.792 E178.36233
G1 X140.748 Y117.792 E184.44441
G1 X140.748 Y122.204 E184.99769
G1 X189.248 Y122.204 E191.07977
G0 F9000 X188.848 Y121.804
M205 X52.5 Y52.5
G1 F6300 X188.848 Y118.192 E191.53273
G1 X141.148 Y118.192 E197.51448
G1 X141.148 Y121.804 E197.96744
G1 X188.848 Y121.804 E203.9492
M204 S1500
G0 F9000 X188.528 Y121.484
;TYPE:SKIN
G1 F6300 X188.528 Y118.512 E204.3219
G1 X141.468 Y118.512 E210.2234
G1 X141.468 Y121.484 E210.5961
G1 X188.528 Y121.484 E216.4976
G0 F9000 X188.328 Y119.314
G1 F6300 X187.726 Y118.712 E216.60436
G0 F9000 X187.16 Y118.712
G1 F6300 X188.328 Y119.88 E216.8115
G0 F9000 X188.328 Y120.446
G1 F6300 X186.594 Y118.712 E217.11902
G0 F9000 X186.028 Y118.712
G1 F6300 X188.328 Y121.011 E217.52683
G0 F9000 X188.035 Y121.284
G1 F6300 X185.463 Y118.712 E217.98297
G0 F9000 X184.897 Y118.712
G1 F6300 X187.469 Y121.284 E218.43911
G0 F9000 X186.903 Y121.284
G1 F6300 X184.331 Y118.712 E218.89525
G0 F9000 X183.766 Y118.712
G1 F6300 X186.337 Y121.284 E219.3513
G0 F9000 X185.772 Y121.284
G1 F6300 X183.2 Y118.712 E219.80743
G0 F9000 X182.634 Y118.712
G1 F6300 X185.206 Y121.284 E220.26357
G0 F9000 X184.64 Y121.284
G1 F6300 X182.069 Y118.712 E220.71962
G0 F9000 X181.503 Y118.712
G1 F6300 X184.075 Y121.284 E221.17576
G0 F9000 X183.509 Y121.284
G1 F6300 X180.937 Y118.712 E221.6319
G0 F9000 X180.372 Y118.712
G1 F6300 X182.943 Y121.284 E222.08795
G0 F9000 X182.378 Y121.284
G1 F6300 X179.806 Y118.712 E222.54409
G0 F9000 X179.24 Y118.712
G1 F6300 X181.812 Y121.284 E223.00022
G0 F9000 X181.246 Y121.284
G1 F6300 X178.675 Y118.712 E223.45627
G0 F9000 X178.109 Y118.712
G1 F6300 X180.681 Y121.284 E223.91241
G0 F9000 X180.115 Y121.284
G1 F6300 X177.543 Y118.712 E224.36855
G0 F9000 X176.978 Y118.712
G1 F6300 X179.549 Y121.284 E224.8246
G0 F9000 X178.984 Y121.284
G1 F6300 X176.412 Y118.712 E225.28074
G0 F9000 X175.846 Y118.712
G1 F6300 X178.418 Y121.284 E225.73687
G0 F9000 X177.852 Y121.284
G1 F6300 X175.28 Y118.712 E226.19301
G0 F9000 X174.715 Y118.712
G1 F6300 X177.287 Y121.284 E226.64915
G0 F9000 X176.721 Y121.284
G1 F6300 X174.149 Y118.712 E227.10529
G0 F9000 X173.583 Y118.712
G1 F6300 X176.155 Y121.284 E227.56143
G0 F9000 X175.589 Y121.284
G1 F6300 X173.018 Y118.712 E228.01748
G0 F9000 X172.452 Y118.712
G1 F6300 X175.024 Y121.284 E228.47361
G0 F9000 X174.458 Y121.284
G1 F6300 X171.886 Y118.712 E228.92975
G0 F9000 X171.321 Y118.712
G1 F6300 X173.892 Y121.284 E229.3858
G0 F9000 X173.327 Y121.284
G1 F6300 X170.755 Y118.712 E229.84194
G0 F9000 X170.189 Y118.712
G1 F6300 X172.761 Y121.284 E230.29808
G0 F9000 X172.195 Y121.284
G1 F6300 X169.624 Y118.712 E230.75413
G0 F9000 X169.058 Y118.712
G1 F6300 X171.63 Y121.284 E231.21027
G0 F9000 X171.064 Y121.284
G1 F6300 X168.492 Y118.712 E231.6664
G0 F9000 X167.927 Y118.712
G1 F6300 X170.498 Y121.284 E232.12245
G0 F9000 X169.933 Y121.284
G1 F6300 X167.361 Y118.712 E232.57859
G0 F9000 X166.795 Y118.712
G1 F6300 X169.367 Y121.284 E233.03473
G0 F9000 X168.801 Y121.284
G1 F6300 X166.229 Y118.712 E233.49087
G0 F9000 X165.664 Y118.712
G1 F6300 X168.236 Y121.284 E233.94701
G0 F9000 X167.67 Y121.284
G1 F6300 X165.098 Y118.712 E234.40314
G0 F9000 X164.532 Y118.712
G1 F6300 X167.104 Y121.284 E234.85928
G0 F9000 X166.538 Y121.284
G1 F6300 X163.967 Y118.712 E235.31533
G0 F9000 X163.401 Y118.712
G1 F6300 X165.973 Y121.284 E235.77147
G0 F9000 X165.407 Y121.284
G1 F6300 X162.835 Y118.712 E236.22761
G0 F9000 X162.27 Y118.712
G1 F6300 X164.841 Y121.284 E236.68366
G0 F9000 X164.276 Y121.284
G1 F6300 X161.704 Y118.712 E237.1398
G0 F9000 X161.138 Y118.712
G1 F6300 X163.71 Y121.284 E237.59593
G0 F9000 X163.144 Y121.284
G1 F6300 X160.573 Y118.712 E238.05198
G0 F9000 X160.007 Y118.712
G1 F6300 X162.579 Y121.284 E238.50812
G0 F9000 X162.013 Y121.284
G1 F6300 X159.441 Y118.712 E238.96426
G0 F9000 X158.876 Y118.712
G1 F6300 X161.447 Y121.284 E239.42031
G0 F9000 X160.882 Y121.284
G1 F6300 X158.31 Y118.712 E239.87645
G0 F9000 X157.744 Y118.712
G1 F6300 X160.316 Y121.284 E240.33258
G0 F9000 X159.75 Y121.284
G1 F6300 X157.179 Y118.712 E240.78863
G0 F9000 X156.613 Y118.712
G1 F6300 X159.185 Y121.284 E241.24477
G0 F9000 X158.619 Y121.284
G1 F6300 X156.047 Y118.712 E241.70091
G0 F9000 X155.481 Y118.712
G1 F6300 X158.053 Y121.284 E242.15705
G0 F9000 X157.488 Y121.284
G1 F6300 X154.916 Y118.712 E242.61319
G0 F9000 X154.35 Y118.712
G1 F6300 X156.922 Y121.284 E243.06932
G0 F9000 X156.356 Y121.284
G1 F6300 X153.784 Y118.712 E243.52546
G0 F9000 X153.219 Y118.712
G1 F6300 X155.79 Y121.284 E243.98151
G0 F9000 X155.225 Y121.284
G1 F6300 X152.653 Y118.712 E244.43765
G0 F9000 X152.087 Y118.712
G1 F6300 X154.659 Y121.284 E244.89379
G0 F9000 X154.093 Y121.284
G1 F6300 X151.522 Y118.712 E245.34984
G0 F9000 X150.956 Y118.712
G1 F6300 X153.528 Y121.284 E245.80598
G0 F9000 X152.962 Y121.284
G1 F6300 X150.39 Y118.712 E246.26211
G0 F9000 X149.825 Y118.712
G1 F6300 X152.396 Y121.284 E246.71816
G0 F9000 X151.831 Y121.284
G1 F6300 X149.259 Y118.712 E247.1743
G0 F9000 X148.693 Y118.712
G1 F6300 X151.265 Y121.284 E247.63044
G0 F9000 X150.699 Y121.284
G1 F6300 X148.128 Y118.712 E248.08649
G0 F9000 X147.562 Y118.712
G1 F6300 X150.134 Y121.284 E248.54263
G0 F9000 X149.568 Y121.284
G1 F6300 X146.996 Y118.712 E248.99877
G0 F9000 X146.431 Y118.712
G1 F6300 X149.002 Y121.284 E249.45481
G0 F9000 X148.437 Y121.284
G1 F6300 X145.865 Y118.712 E249.91095
G0 F9000 X145.299 Y118.712
G1 F6300 X147.871 Y121.284 E250.36709
G0 F9000 X147.305 Y121.284
G1 F6300 X144.733 Y118.712 E250.82323
G0 F9000 X144.168 Y118.712
G1 F6300 X146.74 Y121.284 E251.27937
G0 F9000 X146.174 Y121.284
G1 F6300 X143.602 Y118.712 E251.73551
G0 F9000 X143.036 Y118.712
G1 F6300 X145.608 Y121.284 E252.19164
G0 F9000 X145.042 Y121.284
G1 F6300 X142.471 Y118.712 E252.64769
G0 F9000 X141.905 Y118.712
G1 F6300 X144.477 Y121.284 E253.10383
G0 F9000 X143.911 Y121.284
G1 F6300 X141.667 Y119.04 E253.5018
G0 F9000 X141.667 Y119.606
G1 F6300 X143.345 Y121.284 E253.79939
G0 F9000 X142.78 Y121.284
G1 F6300 X141.667 Y120.171 E253.99678
G0 F9000 X141.667 Y120.737
G1 F6300 X142.214 Y121.284 E254.09379
;TIME_ELAPSED:133.968746
G1 F2700 E247.59379
M140 S0
M204 S3000
M205 X20 Y20
M107

M82 ;absolute extrusion mode
M104 S0
M104 T1 S0
;End of Gcode
;SETTING_3 {"global_quality": "[general]\\nversion = 4\\nname = Dis_waam\\ndefin
;SETTING_3 ition = ultimaker_s5\\n\\n[metadata]\\ntype = quality_changes\\nquali
;SETTING_3 ty_type = fast\\nsetting_version = 25\\n\\n[values]\\nadhesion_extrud
;SETTING_3 er_nr = 0\\nadhesion_type = brim\\nlayer_height = 2\\nlayer_height_0 
;SETTING_3 = 0.5\\nsupport_enable = True\\n\\n", "extruder_quality": ["[general]
;SETTING_3 \\nversion = 4\\nname = Dis_waam\\ndefinition = ultimaker_s5\\n\\n[me
;SETTING_3 tadata]\\ntype = quality_changes\\nquality_type = fast\\nintent_categ
;SETTING_3 ory = engineering\\nposition = 0\\nsetting_version = 25\\n\\n[values]
;SETTING_3 \\ninfill_pattern = triangles\\ninfill_sparse_density = 50\\nspeed_pr
;SETTING_3 int = 105.0\\n\\n", "[general]\\nversion = 4\\nname = Dis_waam\\ndefi
;SETTING_3 nition = ultimaker_s5\\n\\n[metadata]\\ntype = quality_changes\\nqual
;SETTING_3 ity_type = fast\\nintent_category = engineering\\nposition = 1\\nsett
;SETTING_3 ing_version = 25\\n\\n[values]\\ninfill_pattern = triangles\\ninfill_
;SETTING_3 sparse_density = 50\\n\\n"]}
